satname,norad_id,inclination_deg,eccentricity,mean_motion_rev_per_day,perigee_km,apogee_km,l1,l2
STARLINK-1478,45755,53.0541,0.0001607,15.06424201,546.0244947579731,548.2502779457463,1 45755U 20038AB  25326.44872848  .00011453  00000+0  78601-3 0  9990,2 45755  53.0541 338.0413 0001607  77.3816 282.7352 15.06424201300304
STARLINK-1484,45756,53.0148,0.0003724,15.65635855,368.89713711692184,373.9242002205474,1 45756U 20038AC  25326.13021261  .00104209  00000+0  10077-2 0  9996,2 45756  53.0148 236.2896 0003724 100.2106 259.9329 15.65635855301701
STARLINK-1493,45759,53.0568,0.0001487,15.06396892,546.1912827800015,548.2508842740417,1 45759U 20038AF  25326.23862574  .00002375  00000+0  17829-3 0  9994,2 45759  53.0568 338.9824 0001487 101.2932 258.8225 15.06396892300277
STARLINK-1494,45760,53.0542,0.0004856,15.53406012,403.4953568465753,410.08487806304765,1 45760U 20038AG  25326.36144352  .00040983  00000+0  64024-3 0  9993,2 45760  53.0542 316.4114 0004856  70.3851 289.7683 15.53406012300610
STARLINK-1502,45764,53.0552,0.0001563,15.06419515,546.0693252883375,548.234170550937,1 45764U 20038AL  25326.33813393  .00005945  00000+0  41742-3 0  9993,2 45764  53.0552 338.5377 0001563  81.3820 278.7346 15.06419515300301
STARLINK-1470,45772,53.0471,0.0004743,15.19336066,504.57993022906885,511.11197365728185,1 45772U 20038AU  25326.15203404  .00054188  00000+0  25286-2 0  9995,2 45772  53.0471 310.0025 0004743 356.1778   3.9180 15.19336066300681
STARLINK-1482,45773,53.0549,0.0001363,15.06408489,546.2416190358281,548.1294619603686,1 45773U 20038AV  25326.36946760  .00002486  00000+0  18567-3 0  9997,2 45773  53.0549 318.3970 0001363  87.2202 272.8943 15.06408489300585
STARLINK-1496,45780,53.0547,0.00015,15.0640256,546.1649108113079,548.2425130248839,1 45780U 20038BC  25326.20360367  .00001397  00000+0  11265-3 0  9999,2 45780  53.0547 319.1399 0001500  91.4621 268.6540 15.06402560300546
STARLINK-1497,45781,53.0381,0.0006461,15.60656704,381.38882246378125,390.12912884352045,1 45781U 20038BD  25326.19078585  .00205059  00000+0  23725-2 0  9990,2 45781  53.0381 256.6873 0006461  47.0115 313.1438 15.60656704301433
STARLINK-1510,45784,53.0277,0.0004876,15.80107721,326.864781065392,333.40668863641895,1 45784U 20038BG  25326.91668980  .00147817  00000+0  76554-3 0  9993,2 45784  53.0277 226.4777 0004876 128.5929 191.4711 15.80107721  6046
STARLINK-1513,45786,53.0552,0.0001396,15.06397529,546.2523514918239,548.1859109236566,1 45786U 20038BJ  25326.36579089  .00000571  00000+0  57198-4 0  9994,2 45786  53.0552 318.4148 0001396  92.7590 267.3559 15.06397529300582
STARLINK-1522,46027,53.0547,0.0001642,15.06422219,546.0063296887593,548.2805917920659,1 46027U 20055A   25326.01469749  .00009287  00000+0  64113-3 0  9992,2 46027  53.0547 249.9887 0001642 103.4462 256.6710 15.06422219292658
STARLINK-1523,46028,53.0549,0.0001451,15.06446074,546.0655037765237,548.0751989498885,1 46028U 20055B   25326.02944355  .00013452  00000+0  91910-3 0  9999,2 46028  53.0549 249.9262 0001451  84.5994 275.5161 15.06446074292672
STARLINK-1526,46029,53.0551,0.0001673,15.06441702,545.9251608313825,548.2423396944196,1 46029U 20055C   25326.08841399  .00014930  00000+0  10180-2 0  9991,2 46029  53.0551 249.6558 0001673  86.3320 273.7861 15.06441702292670
STARLINK-1555,46032,53.0545,0.000183,15.0642662,545.8626488176888,548.3972965296871,1 46032U 20055F   25326.00732239  .00008305  00000+0  57539-3 0  9998,2 46032  53.0545 250.0201 0001830  89.7060 270.4139 15.06426620292664
STARLINK-1556,46033,53.0545,0.0001655,15.06437002,545.9520280407696,548.2442808768965,1 46033U 20055G   25325.98889616  .00014959  00000+0  10200-2 0  9992,2 46033  53.0545 250.1055 0001655  83.3557 276.7620 15.06437002292636
STARLINK-1557,46034,53.0548,0.0001554,15.06406207,546.1163382329169,548.2687306522212,1 46034U 20055H   25325.99258703  .00002435  00000+0  18225-3 0  9993,2 46034  53.0548 250.0881 0001554  93.1766 266.9401 15.06406207292636
STARLINK-1558,46035,53.0553,0.0001335,15.06426441,546.2059980527156,548.0550444808941,1 46035U 20055J   25325.99995125  .00014928  00000+0  10182-2 0  9993,2 46035  53.0553 250.0573 0001335  86.3967 273.7175 15.06426441292664
STARLINK-1560,46036,53.0543,0.0001602,15.06440489,545.9780468044337,548.1968887239054,1 46036U 20055K   25326.18424833  .00016038  00000+0  10919-2 0  9991,2 46036  53.0543 249.2320 0001602  89.8424 270.2749 15.06440489292697
STARLINK-1567,46038,53.0542,0.0001471,15.06437546,546.0777853999653,548.1151890919127,1 46038U 20055M   25325.99626858  .00015239  00000+0  10387-2 0  9993,2 46038  53.0542 250.0727 0001471  84.3665 275.7492 15.06437546292651
STARLINK-1569,46039,53.0549,0.0001564,15.06426772,546.0463951476722,548.2126185110092,1 46039U 20055N   25326.00364975  .00014102  00000+0  96302-3 0  9996,2 46039  53.0549 250.0409 0001564  91.6610 268.4559 15.06426772292652
STARLINK-1582,46043,53.0547,0.0001498,15.06425336,546.0965022536593,548.1713134176471,1 46043U 20055S   25326.07736907  .00022706  00000+0  15373-2 0  9993,2 46043  53.0547 249.7063 0001498  93.8966 266.2194 15.06425336292667
STARLINK-1591,46045,53.0538,0.0001362,15.06435185,546.1605052932764,548.0469408662439,1 46045U 20055U   25326.23584963  .00018105  00000+0  12301-2 0  9992,2 46045  53.0538 248.9973 0001362  96.2465 263.8680 15.06435185292678
STARLINK-1524,46047,53.0551,0.0001479,15.06461739,545.9981121908277,548.0465743245622,1 46047U 20055W   25326.18884091  .00019458  00000+0  13194-2 0  9996,2 46047  53.0551 239.2086 0001479  99.5823 260.5333 15.06461739292826
STARLINK-1527,46048,53.0558,0.0001776,15.06438577,545.8634066063232,548.3232484186565,1 46048U 20055X   25326.18516546  .00013607  00000+0  92966-3 0  9999,2 46048  53.0558 239.2247 0001776  88.9765 271.1428 15.06438577292805
STARLINK-1540,46051,53.0545,0.0001689,15.06445054,545.9038093090849,548.2431454083371,1 46051U 20055AA  25326.08564787  .00016691  00000+0  11354-2 0  9999,2 46051  53.0545 239.6720 0001689  80.0827 280.0353 15.06445054292826
STARLINK-1541,46052,53.0537,0.0001444,15.06430795,546.1171706032001,548.1171840096058,1 46052U 20055AB  25326.07091010  .00011280  00000+0  77433-3 0  9993,2 46052  53.0537 239.7358 0001444  75.5682 284.5467 15.06430795292789
STARLINK-1543,46053,53.0542,0.0001405,15.06427753,546.1535007745242,548.0994998181077,1 46053U 20055AC  25326.07459210  .00014217  00000+0  97069-3 0  9994,2 46053  53.0542 239.7217 0001405 106.3784 253.7359 15.06427753292815
